ORBVIEW 2 (SEASTAR)     
<<<<<<< .mine
1 24883U 97037A   13103.86973412  .00000263  00000-0  11242-3 0    62
2 24883  98.4438 220.2581 0001109 317.3781 188.9700 14.32613018833448
=======
1 24883U 97037A   13109.80874044  .00000139  00000-0  67093-4 0   117
2 24883  98.4449 226.0446 0001049 280.3327 238.3134 14.32615433834290
>>>>>>> .r6620
METEOSAT-7              
<<<<<<< .mine
1 24932U 97049B   13104.15034005  .00000051  00000-0  00000+0 0  5920
2 24932   8.3042  52.8964 0000865  13.4703 247.8049  1.00268164 57194
=======
1 24932U 97049B   13107.90304581  .00000057  00000-0  00000+0 0  5998
2 24932   8.3118  52.8551 0001147  24.5329 151.4189  1.00268897 57234
>>>>>>> .r6620
NOAA 15                 
<<<<<<< .mine
1 25338U 98030A   13103.50600000  .00000219  00000-0  11216-3 0  6926
2 25338  98.7215  94.0756 0009680 320.1000 185.9938 14.25199687775627
=======
1 25338U 98030A   13109.60711860  .00000118  00000-0  69124-4 0  6986
2 25338  98.7216 100.1414 0009465 300.4053 171.1133 14.25201517776494
>>>>>>> .r6620
NOAA 16                 
<<<<<<< .mine
1 26536U 00055A   13103.41209633  .00000193  00000-0  12845-3 0  1682
2 26536  99.0491 155.5155 0009605 321.3000 168.0854 14.12859189647425
=======
1 26536U 00055A   13109.49761575  .00000199  00000-0  13138-3 0  1743
2 26536  99.0483 161.6652 0009501 302.4054 162.6001 14.12860409648286
>>>>>>> .r6620
GOES 12                 
<<<<<<< .mine
1 26871U 01031A   13103.34660642 -.00000297  00000-0  00000+0 0   111
2 26871   2.9150  69.9839 0002772 355.1700 201.0080  1.00283579 43009
=======
1 26871U 01031A   13109.32592360 -.00000290  00000-0  00000+0 0   175
2 26871   2.9284  69.9293 0003431   6.2604 188.6518  1.00280399 43060
>>>>>>> .r6620
FENGYUN 1D              
<<<<<<< .mine
1 27431U 02024B   13103.98356296 -.00000067  00000-0 -13830-4 0  1357
2 27431  98.8097  69.4024 0016187  62.0441 298.2328 14.09391943561554
=======
1 27431U 02024B   13109.94688742  .00000078  00000-0  69409-4 0  1558
2 27431  98.8105  75.2374 0016175  45.1693 315.0804 14.09393729562399
>>>>>>> .r6620
NOAA 17                 
<<<<<<< .mine
1 27453U 02032A   13103.45918074  .00000177  00000-0  93748-4 0   917
2 27453  98.3153 120.9652 0011278   1.9402 100.6050 14.24553669561506
=======
1 27453U 02032A   13109.57827361  .00000049  00000-0  38799-4 0   973
2 27453  98.3146 126.7616 0010986 343.7663 162.3088 14.24581225562374
>>>>>>> .r6620
METEOSAT-8 (MSG-1)      
<<<<<<< .mine
1 27509U 02040B   13103.20972672  .00000008  00000-0  00000+0 0  3263
2 27509   1.9925  62.4443 0000627  38.9524 179.2465  1.00269705 38993
=======
1 27509U 02040B   13110.02762152  .00000016  00000-0  00000+0 0  3349
2 27509   2.0073  62.4664 0001036  40.6001 118.7118  1.00270586 39059
>>>>>>> .r6620
KALPANA-1 (METSAT 1)    
<<<<<<< .mine
1 27525U 02043A   13104.02097619 -.00000090  00000-0  00000+0 0  6731
2 27525   3.5150  67.3998 0003885 229.3978 347.0816  1.00272303 38809
=======
1 27525U 02043A   13108.96651449 -.00000084  00000-0  00000+0 0  6761
2 27525   3.5260  67.3554 0003359 230.6218 331.1872  1.00271833 38855
>>>>>>> .r6620
INSAT-3A                
<<<<<<< .mine
1 27714U 03013A   13104.01881876 -.00000271  00000-0  10000-3 0  6291
2 27714   0.0609  65.5704 0003189 264.9965 332.0505  1.00272560 36704
=======
1 27714U 03013A   13109.81737801 -.00000265  00000-0  10000-3 0  6374
2 27714   0.0710  72.7013 0003205 270.0988 253.0147  1.00271517 36763
>>>>>>> .r6620
FENGYUN 2C              
<<<<<<< .mine
1 28451U 04042A   13103.66815159 -.00000370  00000-0  10000-3 0  6553
2 28451   4.6081  63.0586 0001753  94.6619  47.9129  1.00284264 31058
=======
1 28451U 04042A   13109.92274806 -.00000362  00000-0  10000-3 0  6614
2 28451   4.6205  62.9962 0001614  88.7756 151.9226  1.00281031 31114
>>>>>>> .r6620
HIMAWARI-6 (MTSAT-1R)   
<<<<<<< .mine
1 28622U 05006A   13103.46246216 -.00000294  00000-0  10000-3 0  8607
2 28622   0.0336 307.2350 0000838  26.1767 174.9008  1.00270824 29758
=======
1 28622U 05006A   13109.53007600 -.00000288  00000-0  10000-3 0  8651
2 28622   0.0256 308.7831 0000542  57.1274 172.7423  1.00271476 29816
>>>>>>> .r6620
NOAA 18                 
<<<<<<< .mine
1 28654U 05018A   13103.46107438  .00000277  00000-0  17708-3 0  5741
2 28654  99.0938  70.7696 0014777  34.8073 117.4255 14.11796571406929
=======
1 28654U 05018A   13109.48410836  .00000197  00000-0  13310-3 0  5801
2 28654  99.0944  76.8746 0014501  18.3766 128.8511 14.11798541407774
>>>>>>> .r6620
METEOSAT-9 (MSG-2)      
<<<<<<< .mine
1 28912U 05049B   13103.16042265  .00000049  00000-0  00000+0 0  4980
2 28912   0.4447  26.0550 0001546 329.0959 273.5731  1.00265932 26840
=======
1 28912U 05049B   13109.22488605  .00000055  00000-0  00000+0 0  5062
2 28912   0.4522  27.3677 0001483 341.1066 289.3330  1.00267179 26904
>>>>>>> .r6620
MTSAT-2                 
<<<<<<< .mine
1 28937U 06004A   13103.48438830 -.00000256  00000-0  00000+0 0  3790
2 28937   0.0241 247.7481 0003921 133.8914 139.5701  1.00274373 26231
=======
1 28937U 06004A   13109.53020559 -.00000250  00000-0  00000+0 0  3870
2 28937   0.0206  68.6753 0004252 326.7080 148.3190  1.00271498 26290
>>>>>>> .r6620
FORMOSAT-3 FM6          
<<<<<<< .mine
1 29047U 06011A   13103.37791495  .00000320  00000-0  14478-3 0   727
2 29047  71.9814  58.5867 0053503 261.9401 243.5587 14.27637522366932
=======
1 29047U 06011A   13109.94215535  .00000144  00000-0  74280-4 0   779
2 29047  71.9824  45.2141 0053208 250.9144 140.1919 14.27640424367875
>>>>>>> .r6620
FORMOSAT-3 FM1          
<<<<<<< .mine
1 29048U 06011B   13103.18045042  .00000309  00000-0  14071-3 0  1533
2 29048  71.9705 332.8254 0045790 216.1062 291.3545 14.27636598369383
=======
1 29048U 06011B   13107.79113771  .00000249  00000-0  11655-3 0  1560
2 29048  71.9697 323.4266 0045573 208.2592 227.8845 14.27638979370048
>>>>>>> .r6620
FORMOSAT-3 FM5          
<<<<<<< .mine
1 29049U 06011C   13104.14489365  .00000269  00000-0  12490-3 0   910
2 29049  72.0192 127.7265 0037595 263.9899 130.3719 14.27650265365301
=======
1 29049U 06011C   13109.49163374  .00000222  00000-0  10619-3 0   956
2 29049  72.0192 116.8567 0037499 255.1951 249.7462 14.27652508366066
>>>>>>> .r6620
FORMOSAT-3 FM3          
<<<<<<< .mine
1 29050U 06011D   13103.30214410  .00000870  00000-0  20586-3 0  4227
2 29050  72.0173 178.3095 0051826  41.9447 318.5654 14.55771718374251
=======
1 29050U 06011D   13109.34910850  .00000474  00000-0  11704-3 0  4275
2 29050  72.0167 165.4434 0052121  30.7152 329.7031 14.55775781375131
>>>>>>> .r6620
FORMOSAT-3 FM4          
<<<<<<< .mine
1 29051U 06011E   13103.29130318  .00000407  00000-0  17730-3 0  1444
2 29051  72.0091  36.1119 0068074 138.1236  18.7464 14.27656606367760
=======
1 29051U 06011E   13109.78415201  .00000251  00000-0  11530-3 0  1495
2 29051  72.0090  22.9035 0067883 126.6460 269.4764 14.27659859368691
>>>>>>> .r6620
FORMOSAT-3 FM2          
<<<<<<< .mine
1 29052U 06011F   13104.06013616  .00000380  00000-0  16890-3 0  1662
2 29052  72.0340 101.0048 0042735 231.8754 163.0751 14.27711630366180
=======
1 29052U 06011F   13108.05363376  .00000265  00000-0  12283-3 0  1693
2 29052  72.0345  92.8916 0042463 225.1019 168.5781 14.27713558366751
>>>>>>> .r6620
GOES 13                 
<<<<<<< .mine
1 29155U 06018A   13102.35207419 -.00000266  00000-0  10000-3 0  5046
2 29155   0.3360 261.6180 0003353 165.3010 185.7734  1.00275418 25246
=======
1 29155U 06018A   13109.32555770 -.00000259  00000-0  10000-3 0  5127
2 29155   0.3189 262.3388 0003290 169.6492 178.1392  1.00274725 25318
>>>>>>> .r6620
METOP-A                 
<<<<<<< .mine
1 29499U 06044A   13103.40265716  .00000122  00000-0  75773-4 0   164
2 29499  98.7195 163.8877 0000154 206.7673 153.3496 14.21471757336377
=======
1 29499U 06044A   13109.80805719  .00000044  00000-0  40145-4 0   211
2 29499  98.7188 170.2154 0000529 198.9675 161.1482 14.21484177337282
>>>>>>> .r6620
FENGYUN 2D              
<<<<<<< .mine
1 29640U 06053A   13104.09091419 -.00000210  00000-0  10000-3 0  6532
2 29640   1.4687  72.4334 0001410  11.1799 237.8015  1.00279476 23306
=======
1 29640U 06053A   13109.96942603 -.00000204  00000-0  10000-3 0  6581
2 29640   1.4808  72.3814 0001597   7.7742 203.4679  1.00278380 23362
>>>>>>> .r6620
FENGYUN 3A              
<<<<<<< .mine
1 32958U 08026A   13104.10965914  .00000073  00000-0  55019-4 0  8372
2 32958  98.6108 171.0433 0010158  20.0770 340.0805 14.19338227252976
=======
1 32958U 08026A   13110.10173936  .00000059  00000-0  48232-4 0  8557
2 32958  98.6102 176.8688 0009913   3.3748 356.7497 14.19339571253820
>>>>>>> .r6620
NOAA 19                 
<<<<<<< .mine
1 33591U 09005A   13103.46268734  .00000302  00000-0  19106-3 0  7604
2 33591  98.8993  46.0536 0013076 251.0679 246.4014 14.11483594215368
=======
1 33591U 09005A   13109.54449009  .00000178  00000-0  12245-3 0  7669
2 33591  98.9003  52.0838 0013241 232.7537 191.2944 14.11485866216225
>>>>>>> .r6620
GOES 14                 
<<<<<<< .mine
1 35491U 09033A   13104.15544618 -.00000099  00000-0  00000+0 0  9123
2 35491   0.1053  83.5364 0002682 127.2955 302.0765  1.00272499 13934
=======
1 35491U 09033A   13109.45013635 -.00000093  00000-0  00000+0 0  9204
2 35491   0.1172  83.6206 0002622 117.6746  62.9422  1.00271953 13988
>>>>>>> .r6620
METEOR-M 1              
<<<<<<< .mine
1 35865U 09049A   13104.11972906 -.00000013  00000-0  13719-4 0  3638
2 35865  98.6090 158.0957 0001637 271.4007  88.6988 14.21882891185368
=======
1 35865U 09049A   13110.10110184  .00000002  00000-0  20393-4 0  3819
2 35865  98.6081 163.9341 0001571 242.1966 117.9051 14.21883631186211
>>>>>>> .r6620
GOES 15                 
<<<<<<< .mine
1 36411U 10008A   13102.55172138  .00000073  00000-0  10000-3 0  5263
2 36411   0.0618  86.8727 0000506 349.0447 188.7861  1.00266327 11415
=======
1 36411U 10008A   13109.32389589  .00000081  00000-0  10000-3 0  5332
2 36411   0.0727  85.0756 0001079 312.8770 151.1720  1.00263936 11480
>>>>>>> .r6620
COMS 1                  
<<<<<<< .mine
1 36744U 10032A   13101.56422455 -.00000361  00000-0  10000-3 0  5530
2 36744   0.0144 138.2330 0001200 292.3352 100.6390  1.00269202 10376
=======
1 36744U 10032A   13108.84322079 -.00000352  00000-0  10000-3 0  5573
2 36744   0.0072 150.1262 0000670 231.8051 256.9390  1.00271745 10445
>>>>>>> .r6620
FENGYUN 3B              
<<<<<<< .mine
1 37214U 10059A   13104.20392389  .00000130  00000-0  82864-4 0  6934
2 37214  98.7966  49.4333 0000075 165.0153 195.1028 14.19326817126482
=======
1 37214U 10059A   13110.19604109  .00000096  00000-0  66639-4 0  7120
2 37214  98.7971  55.3850 0000324 153.0636 207.0560 14.19328312127339
>>>>>>> .r6620
ELEKTRO-L 1 (GOMS 2)    
<<<<<<< .mine
1 37344U 11001A   13103.77188965 -.00000112  00000-0  00000+0 0  5870
2 37344   0.0546 249.4261 0001002 218.8439  87.8582  1.00273932  8221
=======
1 37344U 11001A   13109.09476531 -.00000106  00000-0  00000+0 0  5929
2 37344   0.0424 245.9658 0001364 215.7754 215.9054  1.00271539  8278
>>>>>>> .r6620
SUOMI NPP               
<<<<<<< .mine
1 37849U 11061A   13103.46094590  .00000117  00000-0  76459-4 0  4635
2 37849  98.7486  42.7492 0000720 141.9197 354.6125 14.19537537 75636
=======
1 37849U 11061A   13107.12221817  .00000026  00000-0  33094-4 0  4666
2 37849  98.7490  46.3659 0000851 142.7925 333.5435 14.19538115 76150
>>>>>>> .r6620
FENGYUN 2F              
<<<<<<< .mine
1 38049U 12002A   13103.96493476 -.00000369  00000-0  10000-3 0  3330
2 38049   1.4142 277.9049 0003759 232.1519 151.2081  1.00261689  4648
METOP-B                 
1 38771U 12049A   13104.14469608  .00000087  00000-0  59878-4 0  1818
2 38771  98.7085 165.3670 0002117  36.7379 323.3943 14.21496376 29606
=======
1 38049U 12002A   13109.95923858 -.00000365  00000-0  10000-3 0  3399
2 38049   1.4020 278.0286 0003508 258.3839 128.7988  1.00283852  4703
METOP-B                 
1 38771U 12049A   13107.80487665  .00000051  00000-0  43150-4 0  1847
2 38771  98.7081 168.9782 0001866  26.5418 333.5855 14.21497101 30127
>>>>>>> .r6620
